NORAD_CAT_ID,OBJECT_NAME,OBJECT_TYPE,EPOCH,MEAN_MOTION,ECCENTRICITY,INCLINATION,RA_OF_ASC_NODE,ARG_OF_PERICENTER,MEAN_ANOMALY,BSTAR,MEAN_MOTION_DOT,MEAN_MOTION_DDOT,TLE_LINE0,TLE_LINE1,TLE_LINE2,SEMIMAJOR_AXIS,PERIOD,APOGEE,PERIGEE,DECAYED
53851.0,STARLINK-4755,PAYLOAD,2024-06-08 14:20:48,15.08838195,0.0002354,53.209,282.89,88.1216,272.0045,-0.00017703,-3.105e-05,0.0,0 STARLINK-4755,1 53851U 22114AK  24160.59778326 -.00003105  00000-0 -17703-3 0  9994,2 53851  53.2090 282.8900 0002354  88.1216 272.0045 15.08838195 96498,6917.886,95.438,541.379,538.122,0.0
53851.0,STARLINK-4755,PAYLOAD,2024-06-09 07:50:03,15.08831331,0.0003163,53.2065,279.619,91.2585,268.8769,0.00026798,3.978e-05,0.0,0 STARLINK-4755,1 53851U 22114AK  24161.32643413  .00003978  00000-0  26798-3 0  9994,2 53851  53.2065 279.6190 0003163  91.2585 268.8769 15.08831331 96062,6917.907,95.438,541.96,537.584,0.0
53851.0,STARLINK-4755,PAYLOAD,2024-06-09 17:22:23,15.08819973,0.0002584,53.2102,277.8354,96.0646,264.0641,8.4811e-06,-1.54e-06,0.0,0 STARLINK-4755,1 53851U 22114AK  24161.72388259 -.00000154  00000-0  84811-5 0  9998,2 53851  53.2102 277.8354 0002584  96.0646 264.0641 15.08819973 96125,6917.942,95.439,541.594,538.019,0.0
53851.0,STARLINK-4755,PAYLOAD,2024-06-10 01:19:18,15.08837015,0.0001004,53.2177,276.3477,115.6129,244.4967,0.00042873,6.541e-05,0.0,0 STARLINK-4755,1 53851U 22114AK  24162.05507611  .00006541  00000-0  42873-3 0  9995,2 53851  53.2177 276.3477 0001004 115.6129 244.4967 15.08837015 96172,6917.89,95.438,540.449,539.06,0.0
53851.0,STARLINK-4755,PAYLOAD,2024-06-10 14:02:24,15.08844459,0.0001656,53.216,273.97,98.6286,261.4894,0.0008614,0.00013449,0.0,0 STARLINK-4755,1 53851U 22114AK  24162.58500165  .00013449  00000-0  86140-3 0  9990,2 53851  53.2160 273.9700 0001656  98.6286 261.4894 15.08844459 96799,6917.867,95.437,540.877,538.586,0.0
53851.0,STARLINK-4755,PAYLOAD,2024-06-10 18:48:33,15.08859609,0.0001577,53.2174,273.0768,100.7018,259.4152,0.00092177,0.0001442,0.0,0 STARLINK-4755,1 53851U 22114AK  24162.78371762  .00014420  00000-0  92177-3 0  9998,2 53851  53.2174 273.0768 0001577 100.7018 259.4152 15.08859609 96820,6917.82,95.436,540.776,538.595,0.0
53851.0,STARLINK-4755,PAYLOAD,2024-06-11 13:53:10,15.08853445,0.000139,53.2169,269.5093,80.283,279.8319,0.00060992,9.436e-05,0.0,0 STARLINK-4755,1 53851U 22114AK  24163.57859717  .00009436  00000-0  60992-3 0  9998,2 53851  53.2169 269.5093 0001390  80.2830 279.8319 15.08853445 96948,6917.839,95.437,540.666,538.743,0.0
53851.0,STARLINK-4755,PAYLOAD,2024-06-12 13:43:58,15.08832136,0.0001394,53.2175,265.0478,80.9375,279.1775,-0.00010336,-1.932e-05,0.0,0 STARLINK-4755,1 53851U 22114AK  24164.57220279 -.00001932  00000-0 -10336-3 0  9996,2 53851  53.2175 265.0478 0001394  80.9375 279.1775 15.08832136 96558,6917.904,95.438,540.734,538.805,0.0
53851.0,STARLINK-4755,PAYLOAD,2024-06-13 13:34:45,15.0884265,0.0001231,53.2165,260.5896,84.5633,275.5499,0.00013809,1.911e-05,0.0,0 STARLINK-4755,1 53851U 22114AK  24165.56579964  .00001911  00000-0  13809-3 0  9997,2 53851  53.2165 260.5896 0001231  84.5633 275.5499 15.08842650 96700,6917.872,95.437,540.589,538.886,0.0
53851.0,STARLINK-4755,PAYLOAD,2024-06-13 16:45:31,15.08844284,0.0001232,53.2166,259.9945,81.6774,278.4358,0.00014753,2.061e-05,0.0,0 STARLINK-4755,1 53851U 22114AK  24165.69827908  .00002061  00000-0  14753-3 0  9991,2 53851  53.2166 259.9945 0001232  81.6774 278.4358 15.08844284 97266,6917.867,95.437,540.585,538.88,0.0
53851.0,STARLINK-4755,PAYLOAD,2024-06-14 13:25:32,15.0883706,0.0001298,53.2166,256.1293,88.2881,271.826,0.00014621,2.04e-05,0.0,0 STARLINK-4755,1 53851U 22114AK  24166.55940446  .00002040  00000-0  14621-3 0  9991,2 53851  53.2166 256.1293 0001298  88.2881 271.8260 15.08837060 96852,6917.889,95.438,540.652,538.856,0.0
53851.0,STARLINK-4755,PAYLOAD,2024-06-14 15:00:55,15.0883962,0.0001343,53.2168,255.832,90.0691,270.0455,0.0001852,2.661e-05,0.0,0 STARLINK-4755,1 53851U 22114AK  24166.62564378  .00002661  00000-0  18520-3 0  9996,2 53851  53.2168 255.8320 0001343  90.0691 270.0455 15.08839620 97405,6917.882,95.438,540.676,538.817,0.0
53851.0,STARLINK-4755,PAYLOAD,2024-06-15 13:16:19,15.08843813,0.000155,53.2173,251.6696,88.5915,271.5255,8.1403e-05,1.008e-05,0.0,0 STARLINK-4755,1 53851U 22114AK  24167.55300025  .00001008  00000-0  81403-4 0  9991,2 53851  53.2173 251.6696 0001550  88.5915 271.5255 15.08843813 97540,6917.869,95.437,540.806,538.661,0.0
53851.0,STARLINK-4755,PAYLOAD,2024-06-16 11:31:43,15.08838291,0.0001151,53.216,247.505,88.9873,271.1251,3.5716e-05,2.81e-06,0.0,0 STARLINK-4755,1 53851U 22114AK  24168.48035951  .00000281  00000-0  35716-4 0  9995,2 53851  53.2160 247.5050 0001151  88.9873 271.1251 15.08838291 97689,6917.886,95.438,540.547,538.954,0.0
53851.0,STARLINK-4755,PAYLOAD,2024-06-16 22:39:24,15.08849649,0.0001307,53.2153,245.4235,89.2225,270.8917,0.00021852,3.192e-05,0.0,0 STARLINK-4755,1 53851U 22114AK  24168.94403523  .00003192  00000-0  21852-3 0  9999,2 53851  53.2153 245.4235 0001307  89.2225 270.8917 15.08849649 97753,6917.851,95.437,540.62,538.812,0.0
53851.0,STARLINK-4755,PAYLOAD,2024-06-17 22:30:12,15.08838114,0.0001615,53.2171,240.9613,103.7492,256.368,8.9869e-05,1.142e-05,0.0,0 STARLINK-4755,1 53851U 22114AK  24169.93764325  .00001142  00000-0  89869-4 0  9995,2 53851  53.2171 240.9613 0001615 103.7492 256.3680 15.08838114 97901,6917.886,95.438,540.868,538.634,0.0
53851.0,STARLINK-4755,PAYLOAD,2024-06-18 04:51:45,15.08838924,0.0001629,53.2172,239.7716,104.9811,255.1361,0.00039211,5.958e-05,0.0,0 STARLINK-4755,1 53851U 22114AK  24170.20260451  .00005958  00000-0  39211-3 0  9992,2 53851  53.2172 239.7716 0001629 104.9811 255.1361 15.08838924 97402,6917.884,95.438,540.876,538.622,0.0
53851.0,STARLINK-4755,PAYLOAD,2024-06-18 11:13:17,15.0884225,0.000133,53.2149,238.5844,93.4175,266.6969,0.00024268,3.577e-05,0.0,0 STARLINK-4755,1 53851U 22114AK  24170.46756188  .00003577  00000-0  24268-3 0  9998,2 53851  53.2149 238.5844 0001330  93.4175 266.6969 15.08842250 97980,6917.874,95.437,540.659,538.818,0.0
53851.0,STARLINK-4755,PAYLOAD,2024-06-19 11:04:04,15.08836112,0.0001379,53.2156,234.1242,94.9686,265.1464,0.00011454,1.535e-05,0.0,0 STARLINK-4755,1 53851U 22114AK  24171.46116594  .00001535  00000-0  11454-3 0  9995,2 53851  53.2156 234.1242 0001379  94.9686 265.1464 15.08836112 97599,6917.892,95.438,540.711,538.803,0.0
53851.0,STARLINK-4755,PAYLOAD,2024-06-20 10:54:51,15.08839291,0.0001376,53.216,229.664,92.1801,267.9348,4.6596e-05,4.54e-06,0.0,0 STARLINK-4755,1 53851U 22114AK  24172.45476511  .00000454  00000-0  46596-4 0  9998,2 53851  53.2160 229.6640 0001376  92.1801 267.9348 15.08839291 98280,6917.883,95.438,540.699,538.796,0.0
53851.0,STARLINK-4755,PAYLOAD,2024-06-20 20:27:10,15.08843917,0.0001316,53.2167,227.8794,92.0537,268.0606,9.7082e-05,1.258e-05,0.0,0 STARLINK-4755,1 53851U 22114AK  24172.85220244  .00001258  00000-0  97082-4 0  9991,2 53851  53.2167 227.8794 0001316  92.0537 268.0606 15.08843917 97802,6917.868,95.437,540.644,538.823,0.0
53851.0,STARLINK-4755,PAYLOAD,2024-06-21 09:10:16,15.08832552,0.0001524,53.2179,225.5036,100.3108,259.8056,9.0911e-05,1.159e-05,0.0,0 STARLINK-4755,1 53851U 22114AK  24173.38213185  .00001159  00000-0  90911-4 0  9990,2 53851  53.2179 225.5036 0001524 100.3108 259.8056 15.08832552 97885,6917.903,95.438,540.822,538.714,0.0
53851.0,STARLINK-4755,PAYLOAD,2024-06-22 12:11:49,15.08839715,0.0001522,53.2179,220.4488,102.062,258.0543,7.6838e-05,9.35e-06,0.0,0 STARLINK-4755,1 53851U 22114AK  24174.50821043  .00000935  00000-0  76838-4 0  9996,2 53851  53.2179 220.4488 0001522 102.0620 258.0543 15.08839715 98056,6917.881,95.438,540.799,538.693,0.0
53851.0,STARLINK-4755,PAYLOAD,2024-06-23 10:27:12,15.08843024,0.0001303,53.2162,216.2815,88.6812,271.433,0.00011856,1.6e-05,0.0,0 STARLINK-4755,1 53851U 22114AK  24175.43556704  .00001600  00000-0  11856-3 0  9996,2 53851  53.2162 216.2815 0001303  88.6812 271.4330 15.08843024 98730,6917.871,95.437,540.638,538.835,0.0
53851.0,STARLINK-4755,PAYLOAD,2024-06-24 02:21:04,15.0884576,0.0001286,53.216,213.3079,89.1526,270.9613,9.9846e-05,1.302e-05,0.0,0 STARLINK-4755,1 53851U 22114AK  24176.09796434  .00001302  00000-0  99846-4 0  9990,2 53851  53.2160 213.3079 0001286  89.1526 270.9613 15.08845760 98294,6917.863,95.437,540.617,538.838,0.0
53851.0,STARLINK-4755,PAYLOAD,2024-06-24 08:42:36,15.08845638,0.0001297,53.216,212.1182,88.3721,271.742,9.1117e-05,1.163e-05,0.0,0 STARLINK-4755,1 53851U 22114AK  24176.36292395  .00001163  00000-0  91117-4 0  9995,2 53851  53.2160 212.1182 0001297  88.3721 271.7420 15.08845638 98879,6917.863,95.437,540.625,538.831,0.0
53851.0,STARLINK-4755,PAYLOAD,2024-06-25 05:22:37,15.08842316,0.0001348,53.2159,208.2528,83.8537,276.2609,4.7173e-05,4.63e-06,0.0,0 STARLINK-4755,1 53851U 22114AK  24177.22404575  .00000463  00000-0  47173-4 0  9991,2 53851  53.2159 208.2528 0001348  83.8537 276.2609 15.08842316 98463,6917.873,95.437,540.671,538.806,0.0
53851.0,STARLINK-4755,PAYLOAD,2024-06-25 08:33:23,15.0884152,0.0001299,53.2156,207.6578,88.1398,271.9743,3.2899e-05,2.36e-06,0.0,0 STARLINK-4755,1 53851U 22114AK  24177.35652578  .00000236  00000-0  32899-4 0  9990,2 53851  53.2156 207.6578 0001299  88.1398 271.9743 15.08841520 99026,6917.876,95.437,540.639,538.842,0.0
53851.0,STARLINK-4755,PAYLOAD,2024-06-26 08:24:10,15.08840869,0.0001367,53.2157,203.198,94.6461,265.4687,5.7536e-05,6.28e-06,0.0,0 STARLINK-4755,1 53851U 22114AK  24178.35012467  .00000628  00000-0  57536-4 0  9998,2 53851  53.2157 203.1980 0001367  94.6461 265.4687 15.08840869 98630,6917.878,95.437,540.688,538.797,0.0
53851.0,STARLINK-4755,PAYLOAD,2024-06-27 05:04:12,15.08835478,0.0001411,53.2157,199.3323,100.7857,259.3294,5.0905e-05,5.22e-06,0.0,0 STARLINK-4755,1 53851U 22114AK  24179.21125006  .00000522  00000-0  50905-4 0  9994,2 53851  53.2157 199.3323 0001411 100.7857 259.3294 15.08835478 98765,6917.894,95.438,540.735,538.783,0.0
